start=new Date('2022-05-15T00:00:00.000Z').valueOf();
sats=[{"MEAN_ELEMENT_THEORY":"SGP4","TLE_LINE2":"2 45740  53.0559  18.0109 0001477  71.5683 288.5467 15.06399652105964","TIME_SYSTEM":"UTC","TLE_LINE1":"1 45740U 20038L   22134.91510125  .00000386  00000-0  44781-4 0  9994","EPOCH":"2022-05-14T21:57:44.748000","MEAN_MOTION":"15.06399652","LAUNCH_DATE":"2020-06-13","REV_AT_EPOCH":"10596","DECAY_DATE":null,"OBJECT_TYPE":"PAYLOAD","MEAN_MOTION_DOT":"0.00000386","PERIOD":"95.592","FILE":"3445938","INCLINATION":"53.0559","REF_FRAME":"TEME","NORAD_CAT_ID":"45740","EPHEMERIS_TYPE":"0","MEAN_ANOMALY":"288.5467","GP_ID":"203561417","OBJECT_ID":"2020-038L","RA_OF_ASC_NODE":"18.0109","ECCENTRICITY":"0.00014770","SEMIMAJOR_AXIS":"6925.350","OBJECT_NAME":"STARLINK-1479","ARG_OF_PERICENTER":"71.5683","PERIAPSIS":"546.192","RCS_SIZE":"LARGE","CENTER_NAME":"EARTH","APOAPSIS":"548.237","ELEMENT_SET_NO":"999","MEAN_MOTION_DDOT":"0.0000000000000","COUNTRY_CODE":"US","CLASSIFICATION_TYPE":"U","SITE":"AFETR","BSTAR":"0.00004478100000"},{"BSTAR":"0.00060449000000","SITE":"AFETR","CLASSIFICATION_TYPE":"U","COUNTRY_CODE":"US","MEAN_MOTION_DDOT":"0.0000000000000","ELEMENT_SET_NO":"999","APOAPSIS":"548.439","CENTER_NAME":"EARTH","RCS_SIZE":"LARGE","PERIAPSIS":"545.900","ARG_OF_PERICENTER":"64.7628","OBJECT_NAME":"STARLINK-1480","SEMIMAJOR_AXIS":"6925.305","ECCENTRICITY":"0.00018330","RA_OF_ASC_NODE":"18.1522","OBJECT_ID":"2020-038M","GP_ID":"203560195","MEAN_ANOMALY":"295.3551","NORAD_CAT_ID":"45741","EPHEMERIS_TYPE":"0","REF_FRAME":"TEME","FILE":"3445938","INCLINATION":"53.0556","MEAN_MOTION_DOT":"0.00008737","OBJECT_TYPE":"PAYLOAD","PERIOD":"95.591","DECAY_DATE":null,"REV_AT_EPOCH":"10597","LAUNCH_DATE":"2020-06-13","MEAN_MOTION":"15.06414319","EPOCH":"2022-05-14T21:15:17.514432","TLE_LINE1":"1 45741U 20038M   22134.88561938  .00008737  00000-0  60449-3 0  9995","TIME_SYSTEM":"UTC","MEAN_ELEMENT_THEORY":"SGP4","TLE_LINE2":"2 45741  53.0556  18.1522 0001833  64.7628 295.3551 15.06414319105970"},{"SITE":"AFETR","CLASSIFICATION_TYPE":"U","BSTAR":"0.00018246000000","APOAPSIS":"548.445","CENTER_NAME":"EARTH","MEAN_MOTION_DDOT":"0.0000000000000","COUNTRY_CODE":"US","ELEMENT_SET_NO":"999","RCS_SIZE":"LARGE","PERIAPSIS":"545.876","ARG_OF_PERICENTER":"54.7145","SEMIMAJOR_AXIS":"6925.296","ECCENTRICITY":"0.00018550","OBJECT_NAME":"STARLINK-1481","RA_OF_ASC_NODE":"18.1635","OBJECT_ID":"2020-038N","MEAN_ANOMALY":"305.4018","GP_ID":"203560441","NORAD_CAT_ID":"45742","EPHEMERIS_TYPE":"0","REF_FRAME":"TEME","INCLINATION":"53.0558","FILE":"3445938","DECAY_DATE":null,"OBJECT_TYPE":"PAYLOAD","PERIOD":"95.591","MEAN_MOTION_DOT":"0.00002438","REV_AT_EPOCH":"10595","LAUNCH_DATE":"2020-06-13","EPOCH":"2022-05-14T21:04:39.829728","MEAN_MOTION":"15.06417234","TLE_LINE1":"1 45742U 20038N   22134.87823877  .00002438  00000-0  18246-3 0  9998","MEAN_ELEMENT_THEORY":"SGP4","TLE_LINE2":"2 45742  53.0558  18.1635 0001855  54.7145 305.4018 15.06417234105953","TIME_SYSTEM":"UTC"},{"LAUNCH_DATE":"2020-06-13","REV_AT_EPOCH":"10596","EPOCH":"2022-05-14T21:29:50.268480","MEAN_MOTION":"15.06409287","TLE_LINE1":"1 45743U 20038P   22134.89572070  .00001454  00000-0  11647-3 0  9992","MEAN_ELEMENT_THEORY":"SGP4","TLE_LINE2":"2 45743  53.0622  17.9903 0002311  41.1101 319.0061 15.06409287105960","TIME_SYSTEM":"UTC","EPHEMERIS_TYPE":"0","NORAD_CAT_ID":"45743","REF_FRAME":"TEME","FILE":"3445938","INCLINATION":"53.0622","DECAY_DATE":null,"MEAN_MOTION_DOT":"0.00001454","OBJECT_TYPE":"PAYLOAD","PERIOD":"95.592","ECCENTRICITY":"0.00023110","SEMIMAJOR_AXIS":"6925.320","OBJECT_NAME":"STARLINK-1483","RA_OF_ASC_NODE":"17.9903","OBJECT_ID":"2020-038P","MEAN_ANOMALY":"319.0061","GP_ID":"203561198","CLASSIFICATION_TYPE":"U","SITE":"AFETR","BSTAR":"0.00011647000000","CENTER_NAME":"EARTH","APOAPSIS":"548.786","ELEMENT_SET_NO":"999","COUNTRY_CODE":"US","MEAN_MOTION_DDOT":"0.0000000000000","PERIAPSIS":"545.585","RCS_SIZE":"LARGE","ARG_OF_PERICENTER":"41.1101"},{"BSTAR":"0.00003486600000","CLASSIFICATION_TYPE":"U","SITE":"AFETR","ELEMENT_SET_NO":"999","MEAN_MOTION_DDOT":"0.0000000000000","COUNTRY_CODE":"US","CENTER_NAME":"EARTH","APOAPSIS":"548.349","PERIAPSIS":"546.014","RCS_SIZE":"LARGE","ARG_OF_PERICENTER":"52.8011","OBJECT_NAME":"STARLINK-1500","ECCENTRICITY":"0.00016860","SEMIMAJOR_AXIS":"6925.316","RA_OF_ASC_NODE":"18.2108","OBJECT_ID":"2020-038Q","GP_ID":"203561917","MEAN_ANOMALY":"307.3132","NORAD_CAT_ID":"45744","EPHEMERIS_TYPE":"0","REF_FRAME":"TEME","FILE":"3445938","INCLINATION":"53.0562","MEAN_MOTION_DOT":"0.00000238","OBJECT_TYPE":"PAYLOAD","PERIOD":"95.591","DECAY_DATE":null,"LAUNCH_DATE":"2020-06-13","REV_AT_EPOCH":"10596","MEAN_MOTION":"15.06410533","EPOCH":"2022-05-14T20:48:44.107488","TLE_LINE1":"1 45744U 20038Q   22134.86717717  .00000238  00000-0  34866-4 0  9997","TIME_SYSTEM":"UTC","MEAN_ELEMENT_THEORY":"SGP4","TLE_LINE2":"2 45744  53.0562  18.2108 0001686  52.8011 307.3132 15.06410533105963"},{"CLASSIFICATION_TYPE":"U","SITE":"AFETR","BSTAR":"0.00000995170000","CENTER_NAME":"EARTH","APOAPSIS":"548.317","ELEMENT_SET_NO":"999","COUNTRY_CODE":"US","MEAN_MOTION_DDOT":"0.0000000000000","PERIAPSIS":"546.096","RCS_SIZE":"LARGE","ARG_OF_PERICENTER":"56.0191","ECCENTRICITY":"0.00016030","SEMIMAJOR_AXIS":"6925.341","OBJECT_NAME":"STARLINK-1503","RA_OF_ASC_NODE":"18.2682","OBJECT_ID":"2020-038R","MEAN_ANOMALY":"304.0950","GP_ID":"203534936","EPHEMERIS_TYPE":"0","NORAD_CAT_ID":"45745","REF_FRAME":"TEME","INCLINATION":"53.0543","FILE":"3445648","DECAY_DATE":null,"PERIOD":"95.592","OBJECT_TYPE":"PAYLOAD","MEAN_MOTION_DOT":"-0.00000133","LAUNCH_DATE":"2020-06-13","REV_AT_EPOCH":"10688","EPOCH":"2022-05-14T20:32:49.892064","MEAN_MOTION":"15.06402346","TLE_LINE1":"1 45745U 20038R   22134.85613301 -.00000133  00000-0  99517-5 0  9991","TLE_LINE2":"2 45745  53.0543  18.2682 0001603  56.0191 304.0950 15.06402346106881","MEAN_ELEMENT_THEORY":"SGP4","TIME_SYSTEM":"UTC"},{"LAUNCH_DATE":"2020-06-13","REV_AT_EPOCH":"10688","EPOCH":"2022-05-14T20:54:03.240576","MEAN_MOTION":"15.06406680","TLE_LINE1":"1 45746U 20038S   22134.87087084  .00000801  00000-0  72695-4 0  9995","MEAN_ELEMENT_THEORY":"SGP4","TLE_LINE2":"2 45746  53.0564  18.1987 0001815  58.7082 301.4085 15.06406680106880","TIME_SYSTEM":"UTC","NORAD_CAT_ID":"45746","EPHEMERIS_TYPE":"0","REF_FRAME":"TEME","INCLINATION":"53.0564","FILE":"3445648","DECAY_DATE":null,"OBJECT_TYPE":"PAYLOAD","MEAN_MOTION_DOT":"0.00000801","PERIOD":"95.592","ECCENTRICITY":"0.00018150","SEMIMAJOR_AXIS":"6925.328","OBJECT_NAME":"STARLINK-1504","RA_OF_ASC_NODE":"18.1987","OBJECT_ID":"2020-038S","MEAN_ANOMALY":"301.4085","GP_ID":"203534933","CLASSIFICATION_TYPE":"U","SITE":"AFETR","BSTAR":"0.00007269500000","CENTER_NAME":"EARTH","APOAPSIS":"548.450","ELEMENT_SET_NO":"999","COUNTRY_CODE":"US","MEAN_MOTION_DDOT":"0.0000000000000","PERIAPSIS":"545.936","RCS_SIZE":"LARGE","ARG_OF_PERICENTER":"58.7082"},{"TLE_LINE1":"1 45747U 20038T   22134.87455378 -.00000432  00000-0 -10078-4 0  9990","TIME_SYSTEM":"UTC","MEAN_ELEMENT_THEORY":"SGP4","TLE_LINE2":"2 45747  53.0565  18.1886 0001763  53.7859 306.3293 15.06406957105969","LAUNCH_DATE":"2020-06-13","REV_AT_EPOCH":"10596","MEAN_MOTION":"15.06406957","EPOCH":"2022-05-14T20:59:21.446592","INCLINATION":"53.0565","FILE":"3445938","MEAN_MOTION_DOT":"-0.00000432","OBJECT_TYPE":"PAYLOAD","PERIOD":"95.592","DECAY_DATE":null,"EPHEMERIS_TYPE":"0","NORAD_CAT_ID":"45747","REF_FRAME":"TEME","OBJECT_ID":"2020-038T","GP_ID":"203561698","MEAN_ANOMALY":"306.3293","OBJECT_NAME":"STARLINK-1506","ECCENTRICITY":"0.00017630","SEMIMAJOR_AXIS":"6925.327","RA_OF_ASC_NODE":"18.1886","PERIAPSIS":"545.971","RCS_SIZE":"LARGE","ARG_OF_PERICENTER":"53.7859","BSTAR":"-0.00001007800000","CLASSIFICATION_TYPE":"U","SITE":"AFETR","ELEMENT_SET_NO":"999","COUNTRY_CODE":"US","MEAN_MOTION_DDOT":"0.0000000000000","CENTER_NAME":"EARTH","APOAPSIS":"548.413"},{"REV_AT_EPOCH":"10596","LAUNCH_DATE":"2020-06-13","MEAN_MOTION":"15.06401889","EPOCH":"2022-05-14T22:17:37.473216","TLE_LINE1":"1 45748U 20038U   22134.92890594  .00001757  00000-0  13682-3 0  9992","TIME_SYSTEM":"UTC","MEAN_ELEMENT_THEORY":"SGP4","TLE_LINE2":"2 45748  53.0551  17.9362 0001785  68.5568 291.5612 15.06401889105965","EPHEMERIS_TYPE":"0","NORAD_CAT_ID":"45748","REF_FRAME":"TEME","FILE":"3445938","INCLINATION":"53.0551","OBJECT_TYPE":"PAYLOAD","MEAN_MOTION_DOT":"0.00001757","PERIOD":"95.592","DECAY_DATE":null,"OBJECT_NAME":"STARLINK-1507","SEMIMAJOR_AXIS":"6925.343","ECCENTRICITY":"0.00017850","RA_OF_ASC_NODE":"17.9362","OBJECT_ID":"2020-038U","GP_ID":"203561418","MEAN_ANOMALY":"291.5612","BSTAR":"0.00013682000000","SITE":"AFETR","CLASSIFICATION_TYPE":"U","COUNTRY_CODE":"US","MEAN_MOTION_DDOT":"0.0000000000000","ELEMENT_SET_NO":"999","APOAPSIS":"548.444","CENTER_NAME":"EARTH","RCS_SIZE":"LARGE","PERIAPSIS":"545.972","ARG_OF_PERICENTER":"68.5568"},{"PERIAPSIS":"546.072","RCS_SIZE":"LARGE","ARG_OF_PERICENTER":"62.2019","BSTAR":"0.00003153000000","CLASSIFICATION_TYPE":"U","SITE":"AFETR","ELEMENT_SET_NO":"999","MEAN_MOTION_DDOT":"0.0000000000000","COUNTRY_CODE":"US","CENTER_NAME":"EARTH","APOAPSIS":"548.338","OBJECT_ID":"2020-038W","GP_ID":"203560196","MEAN_ANOMALY":"297.9135","OBJECT_NAME":"STARLINK-1391","ECCENTRICITY":"0.00016360","SEMIMAJOR_AXIS":"6925.340","RA_OF_ASC_NODE":"358.1147","FILE":"3445938","INCLINATION":"53.0553","OBJECT_TYPE":"PAYLOAD","MEAN_MOTION_DOT":"0.00000188","PERIOD":"95.592","DECAY_DATE":null,"EPHEMERIS_TYPE":"0","NORAD_CAT_ID":"45750","REF_FRAME":"TEME","TLE_LINE1":"1 45750U 20038W   22134.89114310  .00000188  00000-0  31530-4 0  9996","TIME_SYSTEM":"UTC","TLE_LINE2":"2 45750  53.0553 358.1147 0001636  62.2019 297.9135 15.06402803106258","MEAN_ELEMENT_THEORY":"SGP4","LAUNCH_DATE":"2020-06-13","REV_AT_EPOCH":"10625","MEAN_MOTION":"15.06402803","EPOCH":"2022-05-14T21:23:14.763840"}];
